[{"OBJECT_ID":"2001-018B","OBJECT_NAME":"BLOCK DM-SL R/B","NORAD_CAT_ID":"26762","OBJECT_TYPE":"ROCKET BODY","PERIOD":"643.306","INCLINATION":"1.039","APOGEE":"35709.034","PERIGEE":"905.323","ECCENTRICITY":"0.7049477","MEAN_MOTION":"2.23843647","TLE_LINE1":"1 26762U 01018B   16238.43829903 -.00000120  00000-0  20000-2 0  9999","TLE_LINE2":"2 26762   1.0390 271.9051 7049477  97.4386   8.1546  2.23843647125133","LAUNCH_DATE":"2001-05-08","LAUNCH_SITE":"SEA LAUNCH","OWNER":"SEA LAUNCH DEMO","ORBIT_TYPE":"Highly Elliptical Orbit","OPERATIONAL_STATUS":"N/A, derelict rocket body","satInfo":{"lng":93.1169180546413,"lat":0.013810935899053257,"elevation":-8.568347300788565,"azimuth":221.8830819453587,"range":42600.291374454384,"height":35746.686930534044,"velocity":1.6657507212859735},"x":256,"y":13,"dx":-0.09057295385873786,"dy":1.6632865073384213,"maxAlt":256,"minAlt":5},{"OBJECT_ID":"2001-024A","OBJECT_NAME":"INTELSAT 901","NORAD_CAT_ID":"26824","OBJECT_TYPE":"PAYLOAD","PERIOD":"1436.094","INCLINATION":"0.0589","APOGEE":"35798.070","PERIGEE":"35775.014","ECCENTRICITY":"0.0002734","MEAN_MOTION":"1.0027198","TLE_LINE1":"1 26824U 01024A   16239.00322626 -.00000169  00000-0  00000+0 0  9997","TLE_LINE2":"2 26824   0.0589 289.4474 0002734 238.8993 149.4875  1.00271980 55671","LAUNCH_DATE":"2001-06-09","LAUNCH_SITE":"FRENCH GUIANA","OWNER":"INTERNATIONAL TELECOMMUNICATIONS SATELLITE ORGANIZATION (INTELSAT)","ORBIT_TYPE":"Geosynchronous","OPERATIONAL_STATUS":"Operational","satInfo":{"lng":-109.1890638767464,"lat":2.009321024239017,"elevation":-6.610563123187319,"azimuth":64.18906387674637,"range":42399.08133747597,"height":35764.94255903868,"velocity":3.075098695966863},"x":-245,"y":83,"dx":-1.0107430780427755,"dy":-2.904243519425621,"maxAlt":256,"minAlt":256},{"OBJECT_ID":"2001-042A","OBJECT_NAME":"EUTE 8 WEST A (AB 2)","NORAD_CAT_ID":"26927","OBJECT_TYPE":"PAYLOAD","PERIOD":"1436.095","INCLINATION":"0.08","APOGEE":"35805.309","PERIGEE":"35767.833","ECCENTRICITY":"0.0004444","MEAN_MOTION":"1.00271876","TLE_LINE1":"1 26927U 01042A   16238.81412957 -.00000128  00000-0  00000+0 0  9991","TLE_LINE2":"2 26927   0.0800  40.2110 0004444 120.7354  94.1224  1.00271876 54601","LAUNCH_DATE":"2001-09-25","LAUNCH_SITE":"FRENCH GUIANA","OWNER":"EUROPEAN TELECOMMUNICATIONS SATELLITE ORGANIZATION (EUTELSAT)","ORBIT_TYPE":"Geosynchronous","OPERATIONAL_STATUS":"Operational","satInfo":{"lng":-172.72410730192303,"lat":-1.289434175269555,"elevation":-9.83049278573023,"azimuth":127.72410730192303,"range":42786.377816508364,"height":35790.683202330445,"velocity":3.074034898081788},"x":-34,"y":254,"dx":-3.0492822079225905,"dy":-0.38931808469610174,"maxAlt":256,"minAlt":256},{"OBJECT_ID":"2002-002A","OBJECT_NAME":"INSAT 3C","NORAD_CAT_ID":"27298","OBJECT_TYPE":"PAYLOAD","PERIOD":"1436.105","INCLINATION":"0.0153","APOGEE":"35803.369","PERIGEE":"35770.177","ECCENTRICITY":"0.0003936","MEAN_MOTION":"1.00271156","TLE_LINE1":"1 27298U 02002A   16238.86269574 -.00000104 +00000-0 +00000-0 0  9995","TLE_LINE2":"2 27298 000.0153 126.2727 0003936 005.8586 226.9576 01.00271156053489","LAUNCH_DATE":"2002-01-23","LAUNCH_SITE":"FRENCH GUIANA","OWNER":"INDIA","ORBIT_TYPE":"Geosynchronous","OPERATIONAL_STATUS":"Operational","satInfo":{"lng":76.68243003096741,"lat":1.9305103756787987,"elevation":-6.6853256669545535,"azimuth":238.31756996903255,"range":42420.46715234696,"height":35777.794803694036,"velocity":3.075319173567382},"x":249,"y":-61,"dx":0.7083940988210761,"dy":2.9926185557245084,"maxAlt":256,"minAlt":256},{"OBJECT_ID":"2002-006A","OBJECT_NAME":"ECHOSTAR 7","NORAD_CAT_ID":"27378","OBJECT_TYPE":"PAYLOAD","PERIOD":"1436.114","INCLINATION":"0.0549","APOGEE":"35790.878","PERIGEE":"35783.001","ECCENTRICITY":"9.34e-05","MEAN_MOTION":"1.00270561","TLE_LINE1":"1 27378U 02006A   16239.53749924 -.00000029  00000-0  00000+0 0  9990","TLE_LINE2":"2 27378   0.0549 291.8608 0000934 257.2291 220.7813  1.00270561 53154","LAUNCH_DATE":"2002-02-21","LAUNCH_SITE":"AIR FORCE EASTERN TEST RANGE","OWNER":"UNITED STATES OF AMERICA","ORBIT_TYPE":"Geosynchronous","OPERATIONAL_STATUS":"Operational","satInfo":{"lng":-107.10809950496275,"lat":1.9905694979888495,"elevation":-6.625435242945867,"azimuth":62.108099504962745,"range":42418.419165689476,"height":35782.412570038985,"velocity":3.074714522912833},"x":-248,"y":74,"dx":-0.9045054856298602,"dy":-2.9386628292263444,"maxAlt":256,"minAlt":256},{"OBJECT_ID":"2002-015A","OBJECT_NAME":"JCSAT 8","NORAD_CAT_ID":"27399","OBJECT_TYPE":"PAYLOAD","PERIOD":"1436.101","INCLINATION":"0.025","APOGEE":"35797.358","PERIGEE":"35776.023","ECCENTRICITY":"0.000253","MEAN_MOTION":"1.00271449","TLE_LINE1":"1 27399U 02015A   16238.77769523 -.00000193  00000-0  00000+0 0  9997","TLE_LINE2":"2 27399   0.0250 104.0794 0002530 124.0257 180.3159  1.00271449 52704","LAUNCH_DATE":"2002-03-29","LAUNCH_SITE":"FRENCH GUIANA","OWNER":"JAPAN","ORBIT_TYPE":"Geosynchronous","OPERATIONAL_STATUS":"Operational","satInfo":{"lng":-134.82556410671472,"lat":-2.3111549778050393,"elevation":-10.818148570982965,"azimuth":89.82556410671472,"range":42927.23006201565,"height":35820.47503169518,"velocity":3.0732981701186435},"x":-184,"y":180,"dx":-2.166523802512989,"dy":-2.179756008272316,"maxAlt":256,"minAlt":256},{"OBJECT_ID":"2002-016A","OBJECT_NAME":"INTELSAT 903","NORAD_CAT_ID":"27403","OBJECT_TYPE":"PAYLOAD","PERIOD":"1436.099","INCLINATION":"0.0078","APOGEE":"35800.058","PERIGEE":"35773.250","ECCENTRICITY":"0.0003179","MEAN_MOTION":"1.00271579","TLE_LINE1":"1 27403U 02016A   16238.09684933 -.00000264  00000-0  00000+0 0  9999","TLE_LINE2":"2 27403   0.0078 104.5832 0003179  58.6247 170.9362  1.00271579 52713","LAUNCH_DATE":"2002-03-30","LAUNCH_SITE":"TYURATAM MISSILE AND SPACE COMPLEX","OWNER":"INTERNATIONAL TELECOMMUNICATIONS SATELLITE ORGANIZATION (INTELSAT)","ORBIT_TYPE":"Geosynchronous","OPERATIONAL_STATUS":"Operational","satInfo":{"lng":-42.61602524962804,"lat":0.1712654568784744,"elevation":-8.408650380963447,"azimuth":357.616025249628,"range":42611.93913920811,"height":35775.92327834444,"velocity":3.075064861894329},"x":-176,"y":-191,"dx":2.26296403474491,"dy":-2.0820705276979035,"maxAlt":256,"minAlt":256},{"OBJECT_ID":"2002-019A","OBJECT_NAME":"NSS 7","NORAD_CAT_ID":"27414","OBJECT_TYPE":"PAYLOAD","PERIOD":"1436.081","INCLINATION":"1.2784","APOGEE":"35797.676","PERIGEE":"35774.924","ECCENTRICITY":"0.0002698","MEAN_MOTION":"1.00272844","TLE_LINE1":"1 27414U 02019A   16237.36734859 -.00000179  00000-0  00000+0 0  9991","TLE_LINE2":"2 27414   1.2784  84.6927 0002698  66.5346 294.0832  1.00272844 52624","LAUNCH_DATE":"2002-04-16","LAUNCH_SITE":"FRENCH GUIANA","OWNER":"SOCIÉTÉ EUROPÉENNE DES SATELLITES","ORBIT_TYPE":"Geosynchronous","OPERATIONAL_STATUS":"Operational","satInfo":{"lng":-94.62168486222927,"lat":-1.6606549031883202,"elevation":-10.197373649109593,"azimuth":49.62168486222927,"range":42798.96455146316,"height":35762.44458308612,"velocity":3.0753003005656674},"x":-258,"y":19,"dx":-0.24779592509234047,"dy":-3.0653008201752265,"maxAlt":256,"minAlt":256},{"OBJECT_ID":"2002-027A","OBJECT_NAME":"INTELSAT 905","NORAD_CAT_ID":"27438","OBJECT_TYPE":"PAYLOAD","PERIOD":"1436.056","INCLINATION":"0.0229","APOGEE":"35797.830","PERIGEE":"35773.780","ECCENTRICITY":"0.0002852","MEAN_MOTION":"1.00274608","TLE_LINE1":"1 27438U 02027A   16238.13496269 -.00000210  00000-0  00000+0 0  9998","TLE_LINE2":"2 27438   0.0229 237.7028 0002852 266.6281 213.5733  1.00274608 52038","LAUNCH_DATE":"2002-06-05","LAUNCH_SITE":"FRENCH GUIANA","OWNER":"INTERNATIONAL TELECOMMUNICATIONS SATELLITE ORGANIZATION (INTELSAT)","ORBIT_TYPE":"Geosynchronous","OPERATIONAL_STATUS":"Operational","satInfo":{"lng":-71.08717222227153,"lat":-0.7293085048757136,"elevation":-9.290454949090373,"azimuth":26.08717222227153,"range":42696.88609693447,"height":35762.088361310256,"velocity":3.0755075171659008},"x":-245,"y":-85,"dx":0.9968618718658466,"dy":-2.9094695215045787,"maxAlt":256,"minAlt":256},{"OBJECT_ID":"2002-035A","OBJECT_NAME":"EUTE 5 WEST A (STELLAT5)","NORAD_CAT_ID":"27460","OBJECT_TYPE":"PAYLOAD","PERIOD":"1436.112","INCLINATION":"0.0512","APOGEE":"35806.850","PERIGEE":"35766.945","ECCENTRICITY":"0.0004732","MEAN_MOTION":"1.00270711","TLE_LINE1":"1 27460U 02035A   16239.08405093 -.00000070  00000-0  00000+0 0  9996","TLE_LINE2":"2 27460   0.0512 321.6063 0004732 201.1467 197.2562  1.00270711 51835","LAUNCH_DATE":"2002-07-05","LAUNCH_SITE":"FRENCH GUIANA","OWNER":"EUROPEAN TELECOMMUNICATIONS SATELLITE ORGANIZATION (EUTELSAT)","ORBIT_TYPE":"Geosynchronous","OPERATIONAL_STATUS":"Operational","satInfo":{"lng":47.71498943153867,"lat":-1.2635025646733578,"elevation":-9.80413066709253,"azimuth":267.2850105684613,"range":42789.08012789347,"height":35796.27933099056,"velocity":3.07504832047534},"x":189,"y":-175,"dx":2.0689509111523168,"dy":2.274942702685104,"maxAlt":256,"minAlt":256},{"OBJECT_ID":"2002-040A","OBJECT_NAME":"EUTE 12 WEST A (AB 1)","NORAD_CAT_ID":"27508","OBJECT_TYPE":"PAYLOAD","PERIOD":"1436.125","INCLINATION":"0.0686","APOGEE":"35795.418","PERIGEE":"35778.898","ECCENTRICITY":"0.0001959","MEAN_MOTION":"1.00269782","TLE_LINE1":"1 27508U 02040A   16239.16987812 -.00000273  00000-0  00000+0 0  9993","TLE_LINE2":"2 27508   0.0686 358.3349 0001959 185.2218 176.4348  1.00269782 51330","LAUNCH_DATE":"2002-08-28","LAUNCH_SITE":"FRENCH GUIANA","OWNER":"EUROPEAN TELECOMMUNICATIONS SATELLITE ORGANIZATION (EUTELSAT)","ORBIT_TYPE":"Geosynchronous","OPERATIONAL_STATUS":"Operational","satInfo":{"lng":-41.18670581705192,"lat":0.1325674670668236,"elevation":-8.445536570968946,"azimuth":356.1867058170519,"range":42620.754916157406,"height":35780.54773504939,"velocity":3.074805137033427},"x":-171,"y":-195,"dx":2.3139990992737656,"dy":-2.0248048793124127,"maxAlt":256,"minAlt":256}]